start=new Date('2022-02-16T00:00:00.000Z').valueOf();
sats=[{"EPHEMERIS_TYPE":"0","MEAN_MOTION_DOT":"0.00005739","REF_FRAME":"TEME","GP_ID":"196058158","APOAPSIS":"548.118","CENTER_NAME":"EARTH","TIME_SYSTEM":"UTC","OBJECT_TYPE":"PAYLOAD","REV_AT_EPOCH":"4366","OBJECT_ID":"2021-038AE","RA_OF_ASC_NODE":"168.5354","TLE_LINE1":"1 48381U 21038AE  22046.80871523  .00005739  00000-0  40380-3 0  9998","NORAD_CAT_ID":"48381","TLE_LINE2":"2 48381  53.0526 168.5354 0001322  62.7522 297.3602 15.06403656 43665","RCS_SIZE":"LARGE","SITE":"AFETR","PERIAPSIS":"546.287","FILE":"3301463","CLASSIFICATION_TYPE":"U","ELEMENT_SET_NO":"999","OBJECT_NAME":"STARLINK-2630","BSTAR":"0.00040380000000","MEAN_MOTION":"15.06403656","ARG_OF_PERICENTER":"62.7522","EPOCH":"2022-02-15T19:24:32.995872","MEAN_MOTION_DDOT":"0.0000000000000","MEAN_ELEMENT_THEORY":"SGP4","LAUNCH_DATE":"2021-05-04","MEAN_ANOMALY":"297.3602","COUNTRY_CODE":"US","SEMIMAJOR_AXIS":"6925.337","INCLINATION":"53.0526","DECAY_DATE":null,"PERIOD":"95.592","ECCENTRICITY":"0.00013220"},{"PERIAPSIS":"546.242","SITE":"AFETR","CLASSIFICATION_TYPE":"U","FILE":"3301463","ELEMENT_SET_NO":"999","MEAN_MOTION":"15.06388949","BSTAR":"0.00003238400000","OBJECT_NAME":"STARLINK-2585","MEAN_MOTION_DDOT":"0.0000000000000","EPOCH":"2022-02-15T17:43:41.992608","ARG_OF_PERICENTER":"73.4995","MEAN_ANOMALY":"286.6153","LAUNCH_DATE":"2021-05-04","MEAN_ELEMENT_THEORY":"SGP4","COUNTRY_CODE":"US","INCLINATION":"53.0555","SEMIMAJOR_AXIS":"6925.382","ECCENTRICITY":"0.00014520","DECAY_DATE":null,"PERIOD":"95.593","MEAN_MOTION_DOT":"0.00000201","EPHEMERIS_TYPE":"0","REF_FRAME":"TEME","OBJECT_TYPE":"PAYLOAD","TIME_SYSTEM":"UTC","CENTER_NAME":"EARTH","GP_ID":"196058410","APOAPSIS":"548.253","OBJECT_ID":"2021-038AF","REV_AT_EPOCH":"4365","TLE_LINE1":"1 48382U 21038AF  22046.73868047  .00000201  00000-0  32384-4 0  9993","RA_OF_ASC_NODE":"168.8472","TLE_LINE2":"2 48382  53.0555 168.8472 0001452  73.4995 286.6153 15.06388949 43657","NORAD_CAT_ID":"48382","RCS_SIZE":"LARGE"},{"EPOCH":"2022-02-15T19:13:56.353152","ARG_OF_PERICENTER":"63.2756","MEAN_MOTION_DDOT":"0.0000000000000","MEAN_ELEMENT_THEORY":"SGP4","MEAN_ANOMALY":"296.8380","LAUNCH_DATE":"2021-05-04","COUNTRY_CODE":"US","SEMIMAJOR_AXIS":"6925.359","INCLINATION":"53.0553","PERIOD":"95.592","DECAY_DATE":null,"ECCENTRICITY":"0.00014370","SITE":"AFETR","PERIAPSIS":"546.229","FILE":"3301463","CLASSIFICATION_TYPE":"U","ELEMENT_SET_NO":"999","BSTAR":"0.00010414000000","OBJECT_NAME":"STARLINK-2599","MEAN_MOTION":"15.06396559","TLE_LINE1":"1 48383U 21038AG  22046.80134668  .00001270  00000-0  10414-3 0  9993","RA_OF_ASC_NODE":"168.5519","NORAD_CAT_ID":"48383","TLE_LINE2":"2 48383  53.0553 168.5519 0001437  63.2756 296.8380 15.06396559 44887","RCS_SIZE":"LARGE","EPHEMERIS_TYPE":"0","MEAN_MOTION_DOT":"0.00001270","REF_FRAME":"TEME","GP_ID":"196059161","APOAPSIS":"548.219","CENTER_NAME":"EARTH","OBJECT_TYPE":"PAYLOAD","TIME_SYSTEM":"UTC","REV_AT_EPOCH":"4488","OBJECT_ID":"2021-038AG"},{"BSTAR":"0.00009477900000","OBJECT_NAME":"STARLINK-2601","MEAN_MOTION":"15.06386246","ELEMENT_SET_NO":"999","FILE":"3301463","CLASSIFICATION_TYPE":"U","SITE":"AFETR","PERIAPSIS":"546.231","ECCENTRICITY":"0.00014790","DECAY_DATE":null,"PERIOD":"95.593","SEMIMAJOR_AXIS":"6925.391","COUNTRY_CODE":"US","INCLINATION":"53.0553","MEAN_ELEMENT_THEORY":"SGP4","MEAN_ANOMALY":"297.6206","LAUNCH_DATE":"2021-05-04","EPOCH":"2022-02-15T17:33:05.990112","ARG_OF_PERICENTER":"62.4934","MEAN_MOTION_DDOT":"0.0000000000000","REV_AT_EPOCH":"4487","OBJECT_ID":"2021-038AH","GP_ID":"196059412","CENTER_NAME":"EARTH","APOAPSIS":"548.280","OBJECT_TYPE":"PAYLOAD","TIME_SYSTEM":"UTC","REF_FRAME":"TEME","EPHEMERIS_TYPE":"0","MEAN_MOTION_DOT":"0.00001130","RCS_SIZE":"LARGE","NORAD_CAT_ID":"48384","TLE_LINE2":"2 48384  53.0553 168.8713 0001479  62.4934 297.6206 15.06386246 44879","RA_OF_ASC_NODE":"168.8713","TLE_LINE1":"1 48384U 21038AH  22046.73131933  .00001130  00000-0  94779-4 0  9990"},{"LAUNCH_DATE":"2021-05-04","MEAN_ANOMALY":"295.0334","MEAN_ELEMENT_THEORY":"SGP4","MEAN_MOTION_DDOT":"0.0000000000000","ARG_OF_PERICENTER":"65.0799","EPOCH":"2022-02-15T17:27:46.760256","DECAY_DATE":null,"ECCENTRICITY":"0.00013900","PERIOD":"95.592","INCLINATION":"53.0536","COUNTRY_CODE":"US","SEMIMAJOR_AXIS":"6925.332","CLASSIFICATION_TYPE":"U","FILE":"3301463","PERIAPSIS":"546.235","SITE":"AFETR","MEAN_MOTION":"15.06405246","OBJECT_NAME":"STARLINK-2598","BSTAR":"0.00048528000000","ELEMENT_SET_NO":"999","TLE_LINE2":"2 48385  53.0536 168.8842 0001390  65.0799 295.0334 15.06405246 44870","NORAD_CAT_ID":"48385","RA_OF_ASC_NODE":"168.8842","TLE_LINE1":"1 48385U 21038AJ  22046.72762454  .00006955  00000-0  48528-3 0  9998","RCS_SIZE":"LARGE","REF_FRAME":"TEME","MEAN_MOTION_DOT":"0.00006955","EPHEMERIS_TYPE":"0","OBJECT_ID":"2021-038AJ","REV_AT_EPOCH":"4487","TIME_SYSTEM":"UTC","OBJECT_TYPE":"PAYLOAD","APOAPSIS":"548.160","GP_ID":"196058658","CENTER_NAME":"EARTH"},{"ELEMENT_SET_NO":"999","MEAN_MOTION":"15.06388437","OBJECT_NAME":"STARLINK-2606","BSTAR":"-0.00006337800000","PERIAPSIS":"546.264","SITE":"AFETR","CLASSIFICATION_TYPE":"U","FILE":"3301463","COUNTRY_CODE":"US","SEMIMAJOR_AXIS":"6925.384","INCLINATION":"53.0533","DECAY_DATE":null,"ECCENTRICITY":"0.00014220","PERIOD":"95.593","MEAN_MOTION_DDOT":"0.0000000000000","ARG_OF_PERICENTER":"67.4375","EPOCH":"2022-02-15T17:08:30.639264","MEAN_ANOMALY":"292.6764","LAUNCH_DATE":"2021-05-04","MEAN_ELEMENT_THEORY":"SGP4","TIME_SYSTEM":"UTC","OBJECT_TYPE":"PAYLOAD","CENTER_NAME":"EARTH","GP_ID":"196058910","APOAPSIS":"548.234","OBJECT_ID":"2021-038AK","REV_AT_EPOCH":"4371","MEAN_MOTION_DOT":"-0.00001225","EPHEMERIS_TYPE":"0","REF_FRAME":"TEME","RCS_SIZE":"LARGE","RA_OF_ASC_NODE":"163.9616","TLE_LINE1":"1 48386U 21038AK  22046.71424351 -.00001225  00000-0 -63378-4 0  9997","TLE_LINE2":"2 48386  53.0533 163.9616 0001422  67.4375 292.6764 15.06388437 43719","NORAD_CAT_ID":"48386"},{"PERIOD":"95.593","DECAY_DATE":null,"ECCENTRICITY":"0.00019500","COUNTRY_CODE":"US","INCLINATION":"53.0537","SEMIMAJOR_AXIS":"6925.383","LAUNCH_DATE":"2021-05-04","MEAN_ANOMALY":"305.3959","MEAN_ELEMENT_THEORY":"SGP4","MEAN_MOTION_DDOT":"0.0000000000000","EPOCH":"2022-02-15T19:31:49.427328","ARG_OF_PERICENTER":"54.7212","MEAN_MOTION":"15.06388905","BSTAR":"-0.00002571500000","OBJECT_NAME":"STARLINK-2600","ELEMENT_SET_NO":"999","CLASSIFICATION_TYPE":"U","FILE":"3301463","PERIAPSIS":"545.897","SITE":"AFETR","RCS_SIZE":"LARGE","TLE_LINE2":"2 48387  53.0537 163.5133 0001950  54.7212 305.3959 15.06388905 43739","NORAD_CAT_ID":"48387","RA_OF_ASC_NODE":"163.5133","TLE_LINE1":"1 48387U 21038AL  22046.81376652 -.00000665  00000-0 -25715-4 0  9999","OBJECT_ID":"2021-038AL","REV_AT_EPOCH":"4373","OBJECT_TYPE":"PAYLOAD","TIME_SYSTEM":"UTC","GP_ID":"196059661","APOAPSIS":"548.598","CENTER_NAME":"EARTH","REF_FRAME":"TEME","MEAN_MOTION_DOT":"-0.00000665","EPHEMERIS_TYPE":"0"},{"RCS_SIZE":"LARGE","TLE_LINE2":"2 48388  53.0545 163.5294 0001495  69.1912 290.9237 15.06385985 43731","NORAD_CAT_ID":"48388","TLE_LINE1":"1 48388U 21038AM  22046.80733495 -.00001443  00000-0 -78026-4 0  9999","RA_OF_ASC_NODE":"163.5294","OBJECT_ID":"2021-038AM","REV_AT_EPOCH":"4373","OBJECT_TYPE":"PAYLOAD","TIME_SYSTEM":"UTC","CENTER_NAME":"EARTH","GP_ID":"196059912","APOAPSIS":"548.292","REF_FRAME":"TEME","MEAN_MOTION_DOT":"-0.00001443","EPHEMERIS_TYPE":"0","DECAY_DATE":null,"PERIOD":"95.593","ECCENTRICITY":"0.00014950","COUNTRY_CODE":"US","INCLINATION":"53.0545","SEMIMAJOR_AXIS":"6925.392","MEAN_ANOMALY":"290.9237","LAUNCH_DATE":"2021-05-04","MEAN_ELEMENT_THEORY":"SGP4","MEAN_MOTION_DDOT":"0.0000000000000","EPOCH":"2022-02-15T19:22:33.739680","ARG_OF_PERICENTER":"69.1912","MEAN_MOTION":"15.06385985","BSTAR":"-0.00007802600000","OBJECT_NAME":"STARLINK-2594","ELEMENT_SET_NO":"999","CLASSIFICATION_TYPE":"U","FILE":"3301463","PERIAPSIS":"546.221","SITE":"AFETR"},{"EPOCH":"2022-02-15T19:04:39.233856","ARG_OF_PERICENTER":"66.6255","MEAN_MOTION_DDOT":"0.0000000000000","MEAN_ELEMENT_THEORY":"SGP4","MEAN_ANOMALY":"293.4877","LAUNCH_DATE":"2021-05-04","COUNTRY_CODE":"US","INCLINATION":"53.0557","SEMIMAJOR_AXIS":"6925.402","PERIOD":"95.593","DECAY_DATE":null,"ECCENTRICITY":"0.00013610","SITE":"AFETR","PERIAPSIS":"546.325","FILE":"3301463","CLASSIFICATION_TYPE":"U","ELEMENT_SET_NO":"999","BSTAR":"-0.00007737600000","OBJECT_NAME":"STARLINK-1904","MEAN_MOTION":"15.06382413","TLE_LINE1":"1 48389U 21038AN  22046.79489854 -.00001433  00000-0 -77376-4 0  9991","RA_OF_ASC_NODE":"158.5863","NORAD_CAT_ID":"48389","TLE_LINE2":"2 48389  53.0557 158.5863 0001361  66.6255 293.4877 15.06382413 43792","RCS_SIZE":"LARGE","EPHEMERIS_TYPE":"0","MEAN_MOTION_DOT":"-0.00001433","REF_FRAME":"TEME","APOAPSIS":"548.210","GP_ID":"196058159","CENTER_NAME":"EARTH","OBJECT_TYPE":"PAYLOAD","TIME_SYSTEM":"UTC","REV_AT_EPOCH":"4379","OBJECT_ID":"2021-038AN"},{"ELEMENT_SET_NO":"999","MEAN_MOTION":"15.06393919","OBJECT_NAME":"STARLINK-2586","BSTAR":"0.00002615400000","PERIAPSIS":"546.245","SITE":"AFETR","CLASSIFICATION_TYPE":"U","FILE":"3301463","COUNTRY_CODE":"US","SEMIMAJOR_AXIS":"6925.367","INCLINATION":"53.0549","DECAY_DATE":null,"PERIOD":"95.593","ECCENTRICITY":"0.00014250","MEAN_MOTION_DDOT":"0.0000000000000","ARG_OF_PERICENTER":"61.5398","EPOCH":"2022-02-15T18:59:19.959072","LAUNCH_DATE":"2021-05-04","MEAN_ANOMALY":"298.5735","MEAN_ELEMENT_THEORY":"SGP4","TIME_SYSTEM":"UTC","OBJECT_TYPE":"PAYLOAD","GP_ID":"196058411","CENTER_NAME":"EARTH","APOAPSIS":"548.219","OBJECT_ID":"2021-038AP","REV_AT_EPOCH":"4501","MEAN_MOTION_DOT":"0.00000108","EPHEMERIS_TYPE":"0","REF_FRAME":"TEME","RCS_SIZE":"LARGE","RA_OF_ASC_NODE":"158.6139","TLE_LINE1":"1 48390U 21038AP  22046.79120323  .00000108  00000-0  26154-4 0  9990","TLE_LINE2":"2 48390  53.0549 158.6139 0001425  61.5398 298.5735 15.06393919 45014","NORAD_CAT_ID":"48390"}];
